CCSDS_OMM_VERS = 2.0
CREATION_DATE  = 
ORIGINATOR     = 

OBJECT_NAME    = STARLINK-35395
OBJECT_ID      = 2025-232K
CENTER_NAME    = EARTH
REF_FRAME      = TEME
TIME_SYSTEM    = UTC
MEAN_ELEMENT_THEORY = SGP/SGP4

EPOCH          = 2025-11-04T14:00:03.000384
MEAN_MOTION    = 15.50161763
ECCENTRICITY   = .00013771
INCLINATION    = 53.1586
RA_OF_ASC_NODE = 327.5707
ARG_OF_PERICENTER = 55.6604
MEAN_ANOMALY   = 4.1370

EPHEMERIS_TYPE = 0
CLASSIFICATION_TYPE = U
NORAD_CAT_ID   = 66014
ELEMENT_SET_NO = 999
REV_AT_EPOCH   = 340
BSTAR          = -.24337377E-1
MEAN_MOTION_DOT = -.1264837E-1
MEAN_MOTION_DDOT = 0

CCSDS_OMM_VERS = 2.0
CREATION_DATE  = 
ORIGINATOR     = 

OBJECT_NAME    = STARLINK-34622
OBJECT_ID      = 2025-232L
CENTER_NAME    = EARTH
REF_FRAME      = TEME
TIME_SYSTEM    = UTC
MEAN_ELEMENT_THEORY = SGP/SGP4

EPOCH          = 2025-11-04T14:00:03.000384
MEAN_MOTION    = 15.50165088
ECCENTRICITY   = .0001514
INCLINATION    = 53.1586
RA_OF_ASC_NODE = 327.5546
ARG_OF_PERICENTER = 54.6670
MEAN_ANOMALY   = 12.7945

EPHEMERIS_TYPE = 0
CLASSIFICATION_TYPE = U
NORAD_CAT_ID   = 66015
ELEMENT_SET_NO = 999
REV_AT_EPOCH   = 330
BSTAR          = -.2448832E-1
MEAN_MOTION_DOT = -.1272138E-1
MEAN_MOTION_DDOT = 0

CCSDS_OMM_VERS = 2.0
CREATION_DATE  = 
ORIGINATOR     = 

OBJECT_NAME    = STARLINK-35243
OBJECT_ID      = 2025-232M
CENTER_NAME    = EARTH
REF_FRAME      = TEME
TIME_SYSTEM    = UTC
MEAN_ELEMENT_THEORY = SGP/SGP4

EPOCH          = 2025-11-04T14:00:03.000384
MEAN_MOTION    = 15.50164018
ECCENTRICITY   = .00014352
INCLINATION    = 53.1586
RA_OF_ASC_NODE = 327.5586
ARG_OF_PERICENTER = 59.0618
MEAN_ANOMALY   = 6.4821

EPHEMERIS_TYPE = 0
CLASSIFICATION_TYPE = U
NORAD_CAT_ID   = 66016
ELEMENT_SET_NO = 999
REV_AT_EPOCH   = 342
BSTAR          = -.24400013E-1
MEAN_MOTION_DOT = -.1267904E-1
MEAN_MOTION_DDOT = 0

CCSDS_OMM_VERS = 2.0
CREATION_DATE  = 
ORIGINATOR     = 

OBJECT_NAME    = STARLINK-35398
OBJECT_ID      = 2025-232N
CENTER_NAME    = EARTH
REF_FRAME      = TEME
TIME_SYSTEM    = UTC
MEAN_ELEMENT_THEORY = SGP/SGP4

EPOCH          = 2025-11-04T14:00:03.000384
MEAN_MOTION    = 15.50162325
ECCENTRICITY   = .00015443
INCLINATION    = 53.1584
RA_OF_ASC_NODE = 327.5470
ARG_OF_PERICENTER = 53.3528
MEAN_ANOMALY   = 17.9430

EPHEMERIS_TYPE = 0
CLASSIFICATION_TYPE = U
NORAD_CAT_ID   = 66017
ELEMENT_SET_NO = 999
REV_AT_EPOCH   = 333
BSTAR          = -.24448668E-1
MEAN_MOTION_DOT = -.1270165E-1
MEAN_MOTION_DDOT = 0

CCSDS_OMM_VERS = 2.0
CREATION_DATE  = 
ORIGINATOR     = 

OBJECT_NAME    = STARLINK-35376
OBJECT_ID      = 2025-232P
CENTER_NAME    = EARTH
REF_FRAME      = TEME
TIME_SYSTEM    = UTC
MEAN_ELEMENT_THEORY = SGP/SGP4

EPOCH          = 2025-11-04T14:00:03.000384
MEAN_MOTION    = 15.50163414
ECCENTRICITY   = .00015873
INCLINATION    = 53.1585
RA_OF_ASC_NODE = 327.5506
ARG_OF_PERICENTER = 54.0425
MEAN_ANOMALY   = 15.3350

EPHEMERIS_TYPE = 0
CLASSIFICATION_TYPE = U
NORAD_CAT_ID   = 66018
ELEMENT_SET_NO = 999
REV_AT_EPOCH   = 342
BSTAR          = -.24441036E-1
MEAN_MOTION_DOT = -.1269865E-1
MEAN_MOTION_DDOT = 0

CCSDS_OMM_VERS = 2.0
CREATION_DATE  = 
ORIGINATOR     = 

OBJECT_NAME    = STARLINK-35382
OBJECT_ID      = 2025-232Q
CENTER_NAME    = EARTH
REF_FRAME      = TEME
TIME_SYSTEM    = UTC
MEAN_ELEMENT_THEORY = SGP/SGP4

EPOCH          = 2025-11-04T14:00:03.000384
MEAN_MOTION    = 15.50163833
ECCENTRICITY   = .00015027
INCLINATION    = 53.1586
RA_OF_ASC_NODE = 327.5618
ARG_OF_PERICENTER = 54.7253
MEAN_ANOMALY   = 8.9030

EPHEMERIS_TYPE = 0
CLASSIFICATION_TYPE = U
NORAD_CAT_ID   = 66019
ELEMENT_SET_NO = 999
REV_AT_EPOCH   = 342
BSTAR          = -.24411117E-1
MEAN_MOTION_DOT = -.1268442E-1
MEAN_MOTION_DDOT = 0

CCSDS_OMM_VERS = 2.0
CREATION_DATE  = 
ORIGINATOR     = 

OBJECT_NAME    = STARLINK-35430
OBJECT_ID      = 2025-232R
CENTER_NAME    = EARTH
REF_FRAME      = TEME
TIME_SYSTEM    = UTC
MEAN_ELEMENT_THEORY = SGP/SGP4

EPOCH          = 2025-11-04T14:00:03.000384
MEAN_MOTION    = 15.50160093
ECCENTRICITY   = .00016229
INCLINATION    = 53.1584
RA_OF_ASC_NODE = 327.5387
ARG_OF_PERICENTER = 53.5135
MEAN_ANOMALY   = 21.6205

EPHEMERIS_TYPE = 0
CLASSIFICATION_TYPE = U
NORAD_CAT_ID   = 66020
ELEMENT_SET_NO = 999
REV_AT_EPOCH   = 341
BSTAR          = -.24511561E-1
MEAN_MOTION_DOT = -.1273065E-1
MEAN_MOTION_DDOT = 0

CCSDS_OMM_VERS = 2.0
CREATION_DATE  = 
ORIGINATOR     = 

OBJECT_NAME    = STARLINK-35432
OBJECT_ID      = 2025-232S
CENTER_NAME    = EARTH
REF_FRAME      = TEME
TIME_SYSTEM    = UTC
MEAN_ELEMENT_THEORY = SGP/SGP4

EPOCH          = 2025-11-04T14:00:03.000384
MEAN_MOTION    = 15.50161674
ECCENTRICITY   = .00014473
INCLINATION    = 53.1584
RA_OF_ASC_NODE = 327.5427
ARG_OF_PERICENTER = 53.2287
MEAN_ANOMALY   = 19.9878

EPHEMERIS_TYPE = 0
CLASSIFICATION_TYPE = U
NORAD_CAT_ID   = 66021
ELEMENT_SET_NO = 999
REV_AT_EPOCH   = 333
BSTAR          = -.24528869E-1
MEAN_MOTION_DOT = -.1273886E-1
MEAN_MOTION_DDOT = 0

CCSDS_OMM_VERS = 2.0
CREATION_DATE  = 
ORIGINATOR     = 

OBJECT_NAME    = STARLINK-35340
OBJECT_ID      = 2025-232T
CENTER_NAME    = EARTH
REF_FRAME      = TEME
TIME_SYSTEM    = UTC
MEAN_ELEMENT_THEORY = SGP/SGP4

EPOCH          = 2025-11-04T14:00:03.000384
MEAN_MOTION    = 15.50141071
ECCENTRICITY   = .00011568
INCLINATION    = 53.1585
RA_OF_ASC_NODE = 327.5340
ARG_OF_PERICENTER = 85.7027
MEAN_ANOMALY   = 351.3439

EPHEMERIS_TYPE = 0
CLASSIFICATION_TYPE = U
NORAD_CAT_ID   = 66022
ELEMENT_SET_NO = 999
REV_AT_EPOCH   = 341
BSTAR          = -.22512247E-1
MEAN_MOTION_DOT = -.1177253E-1
MEAN_MOTION_DDOT = 0

CCSDS_OMM_VERS = 2.0
CREATION_DATE  = 
ORIGINATOR     = 

OBJECT_NAME    = STARLINK-35394
OBJECT_ID      = 2025-232U
CENTER_NAME    = EARTH
REF_FRAME      = TEME
TIME_SYSTEM    = UTC
MEAN_ELEMENT_THEORY = SGP/SGP4

EPOCH          = 2025-11-04T14:00:03.000384
MEAN_MOTION    = 15.50143228
ECCENTRICITY   = .00009968
INCLINATION    = 53.1586
RA_OF_ASC_NODE = 327.5297
ARG_OF_PERICENTER = 92.6577
MEAN_ANOMALY   = 346.3056

EPHEMERIS_TYPE = 0
CLASSIFICATION_TYPE = U
NORAD_CAT_ID   = 66023
ELEMENT_SET_NO = 999
REV_AT_EPOCH   = 341
BSTAR          = -.22570179E-1
MEAN_MOTION_DOT = -.1180061E-1
MEAN_MOTION_DDOT = 0

CCSDS_OMM_VERS = 2.0
CREATION_DATE  = 
ORIGINATOR     = 

OBJECT_NAME    = STARLINK-35410
OBJECT_ID      = 2025-232V
CENTER_NAME    = EARTH
REF_FRAME      = TEME
TIME_SYSTEM    = UTC
MEAN_ELEMENT_THEORY = SGP/SGP4

EPOCH          = 2025-11-04T14:00:03.000384
MEAN_MOTION    = 15.50132032
ECCENTRICITY   = .00011385
INCLINATION    = 53.1585
RA_OF_ASC_NODE = 327.5217
ARG_OF_PERICENTER = 86.4218
MEAN_ANOMALY   = 356.3812

EPHEMERIS_TYPE = 0
CLASSIFICATION_TYPE = U
NORAD_CAT_ID   = 66024
ELEMENT_SET_NO = 999
REV_AT_EPOCH   = 341
BSTAR          = -.22293437E-1
MEAN_MOTION_DOT = -.1166433E-1
MEAN_MOTION_DDOT = 0

CCSDS_OMM_VERS = 2.0
CREATION_DATE  = 
ORIGINATOR     = 

OBJECT_NAME    = STARLINK-35280
OBJECT_ID      = 2025-232W
CENTER_NAME    = EARTH
REF_FRAME      = TEME
TIME_SYSTEM    = UTC
MEAN_ELEMENT_THEORY = SGP/SGP4

EPOCH          = 2025-11-04T14:00:03.000384
MEAN_MOTION    = 15.50141334
ECCENTRICITY   = .00009824
INCLINATION    = 53.1584
RA_OF_ASC_NODE = 327.5253
ARG_OF_PERICENTER = 88.5292
MEAN_ANOMALY   = 352.3540

EPHEMERIS_TYPE = 0
CLASSIFICATION_TYPE = U
NORAD_CAT_ID   = 66025
ELEMENT_SET_NO = 999
REV_AT_EPOCH   = 334
BSTAR          = -.22562553E-1
MEAN_MOTION_DOT = -.117962E-1
MEAN_MOTION_DDOT = 0

