STARLINK-35395          
1 66014U 25232K   25308.58336806 -.01264837  00000+0 -24337-1 0  9990
2 66014  53.1586 327.5707 0001377  55.6604   4.1370 15.50161763  3409
STARLINK-34622          
1 66015U 25232L   25308.58336806 -.01272138  00000+0 -24488-1 0  9991
2 66015  53.1586 327.5546 0001514  54.6670  12.7945 15.50165088  3302
STARLINK-35243          
1 66016U 25232M   25308.58336806 -.01267904  00000+0 -24400-1 0  9991
2 66016  53.1586 327.5586 0001435  59.0618   6.4821 15.50164018  3428
STARLINK-35398          
1 66017U 25232N   25308.58336806 -.01270165  00000+0 -24449-1 0  9998
2 66017  53.1584 327.5470 0001544  53.3528  17.9430 15.50162325  3339
STARLINK-35376          
1 66018U 25232P   25308.58336806 -.01269865  00000+0 -24441-1 0  9996
2 66018  53.1585 327.5506 0001587  54.0425  15.3350 15.50163414  3425
STARLINK-35382          
1 66019U 25232Q   25308.58336806 -.01268442  00000+0 -24411-1 0  9994
2 66019  53.1586 327.5618 0001502  54.7253   8.9030 15.50163833  3422
STARLINK-35430          
1 66020U 25232R   25308.58336806 -.01273065  00000+0 -24512-1 0  9995
2 66020  53.1584 327.5387 0001622  53.5135  21.6205 15.50160093  3414
STARLINK-35432          
1 66021U 25232S   25308.58336806 -.01273886  00000+0 -24529-1 0  9995
2 66021  53.1584 327.5427 0001447  53.2287  19.9878 15.50161674  3333
STARLINK-35340          
1 66022U 25232T   25308.58336806 -.01177253  00000+0 -22512-1 0  9997
2 66022  53.1585 327.5340 0001156  85.7027 351.3439 15.50141071  3412
STARLINK-35394          
1 66023U 25232U   25308.58336806 -.01180061  00000+0 -22570-1 0  9993
2 66023  53.1586 327.5297 0000996  92.6577 346.3056 15.50143228  3418
STARLINK-35410          
1 66024U 25232V   25308.58336806 -.01166433  00000+0 -22293-1 0  9993
2 66024  53.1585 327.5217 0001138  86.4218 356.3812 15.50132032  3414
STARLINK-35280          
1 66025U 25232W   25308.58336806 -.01179620  00000+0 -22563-1 0  9996
2 66025  53.1584 327.5253 0000982  88.5292 352.3540 15.50141334  3346
